COMMENT,ORIGINATOR,NORAD_CAT_ID,OBJECT_NAME,OBJECT_TYPE,CLASSIFICATION_TYPE,INTLDES,EPOCH,EPOCH_MICROSECONDS,MEAN_MOTION,ECCENTRICITY,INCLINATION,RA_OF_ASC_NODE,ARG_OF_PERICENTER,MEAN_ANOMALY,EPHEMERIS_TYPE,ELEMENT_SET_NO,REV_AT_EPOCH,BSTAR,MEAN_MOTION_DOT,MEAN_MOTION_DDOT,FILE,TLE_LINE0,TLE_LINE1,TLE_LINE2,OBJECT_ID,OBJECT_NUMBER,SEMIMAJOR_AXIS,PERIOD,APOGEE,PERIGEE,DECAYED
"GENERATED VIA SPACETRACK.ORG API","18 SPCS","56232","FENGYUN 3G","PAYLOAD","U","23055A","2023-09-20 21:17:56","330592","15.52789233","0.0007785","49.9975","104.1546","20.4378","339.69","0","999","2452","0.00058807","0.00036878","0","4012054","0 FENGYUN 3G","1 56232U 23055A   23263.88745753  .00036878  00000-0  58807-3 0  9999","2 56232  49.9975 104.1546 0007785  20.4378 339.6900 15.52789233 24523","2023-055A","56232","6786.724","92.736","413.872","403.305","0"
"GENERATED VIA SPACETRACK.ORG API","18 SPCS","56232","FENGYUN 3G","PAYLOAD","U","23055A","2023-09-21 01:55:56","65728","15.52804561","0.0007759","49.9975","103.1596","21.2309","338.8979","0","999","2455","0.00058772","0.00036877","0","4012329","0 FENGYUN 3G","1 56232U 23055A   23264.08051002  .00036877  00000-0  58772-3 0  9999","2 56232  49.9975 103.1596 0007759  21.2309 338.8979 15.52804561 24553","2023-055A","56232","6786.679","92.735","413.810","403.278","0"
"GENERATED VIA SPACETRACK.ORG API","18 SPCS","56232","FENGYUN 3G","PAYLOAD","U","23055A","2023-09-21 03:28:35","936832","15.52810842","0.0007758","49.9975","102.8279","21.5085","338.6207","0","999","2456","0.00061116","0.00038382","0","4012630","0 FENGYUN 3G","1 56232U 23055A   23264.14486038  .00038382  00000-0  61116-3 0  9996","2 56232  49.9975 102.8279 0007758  21.5085 338.6207 15.52810842 24562","2023-055A","56232","6786.661","92.735","413.791","403.261","0"
"GENERATED VIA SPACETRACK.ORG API","18 SPCS","56232","FENGYUN 3G","PAYLOAD","U","23055A","2023-09-21 12:44:34","885248","15.52835783","0.0007723","49.9975","100.8381","23.1059","337.0254","0","999","2462","0.00055171","0.00034617","0","4012680","0 FENGYUN 3G","1 56232U 23055A   23264.53095932  .00034617  00000-0  55171-3 0  9999","2 56232  49.9975 100.8381 0007723  23.1059 337.0254 15.52835783 24628","2023-055A","56232","6786.588","92.734","413.694","403.212","0"
"GENERATED VIA SPACETRACK.ORG API","18 SPCS","56232","FENGYUN 3G","PAYLOAD","U","23055A","2023-09-21 17:22:34","131360","15.52850277","0.0007749","49.9975","99.8433","23.8942","336.2384","0","999","2465","0.0005676","0.00035652","0","4012925","0 FENGYUN 3G","1 56232U 23055A   23264.72400615  .00035652  00000-0  56760-3 0  9993","2 56232  49.9975  99.8433 0007749  23.8942 336.2384 15.52850277 24652","2023-055A","56232","6786.546","92.733","413.670","403.152","0"
"GENERATED VIA SPACETRACK.ORG API","18 SPCS","56232","FENGYUN 3G","PAYLOAD","U","23055A","2023-09-21 22:00:33","247008","15.52863512","0.0007753","49.9976","98.8482","24.6466","335.487","0","999","2468","0.00056481","0.00035491","0","4012956","0 FENGYUN 3G","1 56232U 23055A   23264.91705147  .00035491  00000-0  56481-3 0  9993","2 56232  49.9976  98.8482 0007753  24.6466 335.4870 15.52863512 24681","2023-055A","56232","6786.507","92.732","413.634","403.111","0"
"GENERATED VIA SPACETRACK.ORG API","18 SPCS","56232","FENGYUN 3G","PAYLOAD","U","23055A","2023-09-22 02:38:32","177760","15.52879046","0.0007732","49.9975","97.853","25.4176","334.717","0","999","2471","0.00057945","0.00036448","0","4013272","0 FENGYUN 3G","1 56232U 23055A   23265.11009465  .00036448  00000-0  57945-3 0  9995","2 56232  49.9975  97.8530 0007732  25.4176 334.7170 15.52879046 24715","2023-055A","56232","6786.462","92.731","413.574","403.080","0"
"GENERATED VIA SPACETRACK.ORG API","18 SPCS","56232","FENGYUN 3G","PAYLOAD","U","23055A","2023-09-22 08:49:10","523424","15.52897311","0.0007705","49.9974","96.5267","26.374","333.7618","0","999","2475","0.00057524","0.00036202","0","4013507","0 FENGYUN 3G","1 56232U 23055A   23265.36748291  .00036202  00000-0  57524-3 0  9990","2 56232  49.9974  96.5267 0007705  26.3740 333.7618 15.52897311 24759","2023-055A","56232","6786.409","92.730","413.503","403.045","0"
"GENERATED VIA SPACETRACK.ORG API","18 SPCS","56232","FENGYUN 3G","PAYLOAD","U","23055A","2023-09-22 13:27:09","127584","15.52912199","0.0007708","49.9973","95.5318","27.1483","332.9886","0","999","2478","0.00058735","0.00036998","0","4013584","0 FENGYUN 3G","1 56232U 23055A   23265.56052231  .00036998  00000-0  58735-3 0  9991","2 56232  49.9973  95.5318 0007708  27.1483 332.9886 15.52912199 24783","2023-055A","56232","6786.365","92.729","413.461","402.999","0"
"GENERATED VIA SPACETRACK.ORG API","18 SPCS","56232","FENGYUN 3G","PAYLOAD","U","23055A","2023-09-22 16:32:28","90464","15.52922957","0.0007716","49.9974","94.8686","27.5567","332.5808","0","999","2480","0.00061705","0.00038917","0","4013843","0 FENGYUN 3G","1 56232U 23055A   23265.68921401  .00038917  00000-0  61705-3 0  9992","2 56232  49.9974  94.8686 0007716  27.5567 332.5808 15.52922957 24806","2023-055A","56232","6786.334","92.728","413.435","402.963","0"
"GENERATED VIA SPACETRACK.ORG API","18 SPCS","56232","FENGYUN 3G","PAYLOAD","U","23055A","2023-09-22 21:10:26","400000","15.52939511","0.0007705","49.9974","93.8736","28.2991","331.8393","0","999","2483","0.00065572","0.00041424","0","4013859","0 FENGYUN 3G","1 56232U 23055A   23265.88225000  .00041424  00000-0  65572-3 0  9999","2 56232  49.9974  93.8736 0007705  28.2991 331.8393 15.52939511 24836","2023-055A","56232","6786.286","92.727","413.380","402.922","0"
"GENERATED VIA SPACETRACK.ORG API","18 SPCS","56232","FENGYUN 3G","PAYLOAD","U","23055A","2023-09-23 01:48:24","524640","15.52957064","0.0007687","49.9974","92.8785","29.06","331.0794","0","999","2486","0.00068357","0.00043241","0","4014076","0 FENGYUN 3G","1 56232U 23055A   23266.07528385  .00043241  00000-0  68357-3 0  9996","2 56232  49.9974  92.8785 0007687  29.0600 331.0794 15.52957064 24867","2023-055A","56232","6786.235","92.726","413.316","402.883","0"
"GENERATED VIA SPACETRACK.ORG API","18 SPCS","56232","FENGYUN 3G","PAYLOAD","U","23055A","2023-09-23 12:36:59","508864","15.52990169","0.0007642","49.9975","90.5569","30.7843","329.3571","0","999","2493","0.00060988","0.00038552","0","4014476","0 FENGYUN 3G","1 56232U 23055A   23266.52568876  .00038552  00000-0  60988-3 0  9996","2 56232  49.9975  90.5569 0007642  30.7843 329.3571 15.52990169 24936","2023-055A","56232","6786.138","92.724","413.189","402.817","0"
"GENERATED VIA SPACETRACK.ORG API","18 SPCS","56232","FENGYUN 3G","PAYLOAD","U","23055A","2023-09-23 12:36:59","508864","15.52990169","0.0007642","49.9975","90.5569","30.7843","329.3571","0","999","2493","0.00060988","0.00038552","0","4014543","0 FENGYUN 3G","1 56232U 23055A   23266.52568876  .00038552  00000-0  60988-3 0  9996","2 56232  49.9975  90.5569 0007642  30.7843 329.3571 15.52990169 24936","2023-055A","56232","6786.138","92.724","413.189","402.817","0"
"GENERATED VIA SPACETRACK.ORG API","18 SPCS","56232","FENGYUN 3G","PAYLOAD","U","23055A","2023-09-23 18:47:36","226752","15.53012944","0.0007691","49.9977","89.2302","31.4634","328.6792","0","999","2497","0.00065247","0.00041326","0","4014774","0 FENGYUN 3G","1 56232U 23055A   23266.78305818  .00041326  00000-0  65247-3 0  9995","2 56232  49.9977  89.2302 0007691  31.4634 328.6792 15.53012944 24976","2023-055A","56232","6786.072","92.723","413.156","402.718","0"
"GENERATED VIA SPACETRACK.ORG API","18 SPCS","56232","FENGYUN 3G","PAYLOAD","U","23055A","2023-09-23 23:25:33","537504","15.53030258","0.0007697","49.9979","88.235","32.0876","328.0559","0","999","2500","0.00066097","0.000419","0","4015059","0 FENGYUN 3G","1 56232U 23055A   23266.97608261  .00041900  00000-0  66097-3 0  9996","2 56232  49.9979  88.2350 0007697  32.0876 328.0559 15.53030258 25009","2023-055A","56232","6786.021","92.722","413.110","402.663","0"
"GENERATED VIA SPACETRACK.ORG API","18 SPCS","56232","FENGYUN 3G","PAYLOAD","U","23055A","2023-09-24 11:46:45","486336","15.53072985","0.0007687","49.9979","85.5811","34.1062","326.0398","0","999","2508","0.00061459","0.00038973","0","4015323","0 FENGYUN 3G","1 56232U 23055A   23267.49080424  .00038973  00000-0  61459-3 0  9992","2 56232  49.9979  85.5811 0007687  34.1062 326.0398 15.53072985 25080","2023-055A","56232","6785.897","92.719","412.978","402.546","0"
"GENERATED VIA SPACETRACK.ORG API","18 SPCS","56232","FENGYUN 3G","PAYLOAD","U","23055A","2023-09-24 13:19:24","383712","15.53079788","0.0007694","49.9979","85.2496","34.3112","325.8351","0","999","2509","0.00063299","0.0004017","0","4015358","0 FENGYUN 3G","1 56232U 23055A   23267.55514333  .00040170  00000-0  63299-3 0  9996","2 56232  49.9979  85.2496 0007694  34.3112 325.8351 15.53079788 25097","2023-055A","56232","6785.877","92.719","412.963","402.521","0"
"GENERATED VIA SPACETRACK.ORG API","18 SPCS","56232","FENGYUN 3G","PAYLOAD","U","23055A","2023-09-24 17:57:20","979072","15.53098085","0.0007707","49.9979","84.2545","35.0375","325.1098","0","999","2512","0.00067892","0.00043165","0","4015618","0 FENGYUN 3G","1 56232U 23055A   23267.74815948  .00043165  00000-0  67892-3 0  9993","2 56232  49.9979  84.2545 0007707  35.0375 325.1098 15.53098085 25121","2023-055A","56232","6785.824","92.718","412.919","402.459","0"
"GENERATED VIA SPACETRACK.ORG API","18 SPCS","56232","FENGYUN 3G","PAYLOAD","U","23055A","2023-09-24 21:02:38","594976","15.53109035","0.0007706","49.9981","83.5909","35.5369","324.611","0","999","2514","0.00066522","0.00042296","0","4015673","0 FENGYUN 3G","1 56232U 23055A   23267.87683559  .00042296  00000-0  66522-3 0  9991","2 56232  49.9981  83.5909 0007706  35.5369 324.6110 15.53109035 25146","2023-055A","56232","6785.792","92.717","412.886","402.428","0"
